[{"OBJECT_NAME":"EAGLET-I","OBJECT_ID":"2018-099AJ","EPOCH":"2026-03-09T16:28:56.807904","MEAN_MOTION":15.12108145,"ECCENTRICITY":0.00104863,"INCLINATION":97.4369,"RA_OF_ASC_NODE":120.9821,"ARG_OF_PERICENTER":336.8524,"MEAN_ANOMALY":23.2233,"EPHEMERIS_TYPE":0,"CLASSIFICATION_TYPE":"U","NORAD_CAT_ID":43790,"ELEMENT_SET_NO":999,"REV_AT_EPOCH":39729,"BSTAR":0.0003526184,"MEAN_MOTION_DOT":6.017e-5,"MEAN_MOTION_DDOT":0},{"OBJECT_NAME":"STARLINK-3243","OBJECT_ID":"2022-005N","EPOCH":"2026-03-09T21:23:33.734688","MEAN_MOTION":15.08835681,"ECCENTRICITY":0.00015346,"INCLINATION":53.2188,"RA_OF_ASC_NODE":288.1884,"ARG_OF_PERICENTER":110.6784,"MEAN_ANOMALY":249.4373,"EPHEMERIS_TYPE":0,"CLASSIFICATION_TYPE":"U","NORAD_CAT_ID":51116,"ELEMENT_SET_NO":999,"REV_AT_EPOCH":22890,"BSTAR":-2.835398e-5,"MEAN_MOTION_DOT":-7.39e-6,"MEAN_MOTION_DDOT":0}]
